0 SCOUT A-1 DEB
1 15764U 73081C   13281.32458291  .00000239  00000-0  26064-3 0    43
2 15764 090.4755 065.6709 0185199 231.4160 213.3773 13.63676011504658
0 SCOUT A-1 DEB
1 15764U 73081C   13283.36731968  .00000232  00000-0  25346-3 0    50
2 15764 090.4757 065.7710 0185362 225.3427 161.6783 13.63677755504936
0 SCOUT A-1 DEB
1 15764U 73081C   13285.42977465  .00000208  00000-0  22595-3 0    60
2 15764 090.4765 065.8735 0185549 219.2260 206.7759 13.63678886505219
0 SCOUT A-1 DEB
1 15764U 73081C   13287.85810067  .00000318  00000-0  34898-3 0    75
2 15764 090.4770 065.9928 0185739 212.0204 248.0404 13.63680266505547
0 SCOUT A-1 DEB
1 15764U 73081C   13290.27690926  .00000300  00000-0  32819-3 0    88
2 15764 090.4774 066.1121 0185957 204.8529 242.5858 13.63681571505878
0 SCOUT A-1 DEB
1 15764U 73081C   13292.39868137  .00000352  00000-0  38621-3 0    99
2 15764 090.4776 066.2165 0186196 198.5821 218.8981 13.63682731506164
0 SCOUT A-1 DEB
1 15764U 73081C   13294.90744057  .00000343  00000-0  37611-3 0   102
2 15764 090.4776 066.3399 0186467 191.1691 295.0354 13.63684488506509
